NORAD_CAT_ID,OBJECT_NAME,OBJECT_TYPE,EPOCH,MEAN_MOTION,ECCENTRICITY,INCLINATION,RA_OF_ASC_NODE,ARG_OF_PERICENTER,MEAN_ANOMALY,BSTAR,MEAN_MOTION_DOT,MEAN_MOTION_DDOT,TLE_LINE0,TLE_LINE1,TLE_LINE2,SEMIMAJOR_AXIS,PERIOD,APOGEE,PERIGEE,DECAYED
51725.0,STARLINK-3522,PAYLOAD,2024-03-09 13:16:31,15.08846507,0.000131,53.2187,6.8303,86.1988,273.9154,0.000195,2.817e-05,0.0,0 STARLINK-3522,1 51725U 22016M   24069.55314123  .00002817  00000-0  19500-3 0  9992,2 51725  53.2187   6.8303 0001310  86.1988 273.9154 15.08846507113193,6917.86,95.437,540.632,538.819,0.0
51725.0,STARLINK-3522,PAYLOAD,2024-03-10 05:10:21,15.08866468,0.0001393,53.2183,3.8553,95.0511,265.064,0.00034796,5.258e-05,0.0,0 STARLINK-3522,1 51725U 22016M   24070.21552693  .00005258  00000-0  34796-3 0  9999,2 51725  53.2183   3.8553 0001393  95.0511 265.0640 15.08866468114433,6917.799,95.436,540.628,538.701,0.0
51725.0,STARLINK-3522,PAYLOAD,2024-03-10 13:07:18,15.08835539,0.0001619,53.2207,2.3661,94.383,265.7348,-6.2249e-05,-1.278e-05,0.0,0 STARLINK-3522,1 51725U 22016M   24070.54674130 -.00001278  00000-0 -62249-4 0  9991,2 51725  53.2207   2.3661 0001619  94.3830 265.7348 15.08835539114483,6917.894,95.438,540.879,538.639,0.0
51725.0,STARLINK-3522,PAYLOAD,2024-03-10 22:39:37,15.08834088,0.0001176,53.2189,0.5831,93.8449,266.2677,-1.1302e-05,-4.68e-06,0.0,0 STARLINK-3522,1 51725U 22016M   24070.94418146 -.00000468  00000-0 -11302-4 0  9992,2 51725  53.2189   0.5831 0001176  93.8449 266.2677 15.08834088113409,6917.898,95.438,540.577,538.95,0.0
51725.0,STARLINK-3522,PAYLOAD,2024-03-11 01:50:23,15.08837368,0.0001319,53.2183,359.9888,93.5424,266.5719,-9.9915e-05,-1.878e-05,0.0,0 STARLINK-3522,1 51725U 22016M   24071.07666068 -.00001878  00000-0 -99915-4 0  9997,2 51725  53.2183 359.9888 0001319  93.5424 266.5719 15.08837368113421,6917.888,95.438,540.666,538.841,0.0
51725.0,STARLINK-3522,PAYLOAD,2024-03-11 19:19:37,15.08844352,0.0001152,53.2191,356.7173,101.891,258.2211,-0.00013738,-2.474e-05,0.0,0 STARLINK-3522,1 51725U 22016M   24071.80529693 -.00002474  00000-0 -13738-3 0  9991,2 51725  53.2191 356.7173 0001152 101.8910 258.2211 15.08844352114674,6917.867,95.437,540.529,538.935,0.0
51725.0,STARLINK-3522,PAYLOAD,2024-03-12 11:13:29,15.0884218,0.0001361,53.2186,353.7444,97.2154,262.8993,0.00010279,1.348e-05,0.0,0 STARLINK-3522,1 51725U 22016M   24072.46769934  .00001348  00000-0  10279-3 0  9992,2 51725  53.2186 353.7444 0001361  97.2154 262.8993 15.08842180113636,6917.874,95.437,540.68,538.797,0.0
51725.0,STARLINK-3522,PAYLOAD,2024-03-12 23:56:34,15.0883585,0.0001298,53.2188,351.3657,95.0726,265.0414,0.00013214,1.816e-05,0.0,0 STARLINK-3522,1 51725U 22016M   24072.99762405  .00001816  00000-0  13214-3 0  9998,2 51725  53.2188 351.3657 0001298  95.0726 265.0414 15.08835850114852,6917.893,95.438,540.656,538.86,0.0
51725.0,STARLINK-3522,PAYLOAD,2024-03-13 22:11:58,15.08839337,0.0001278,53.2186,347.2026,93.0076,267.1063,3.1759e-05,2.18e-06,0.0,0 STARLINK-3522,1 51725U 22016M   24073.92498397  .00000218  00000-0  31759-4 0  9998,2 51725  53.2186 347.2026 0001278  93.0076 267.1063 15.08839337113854,6917.882,95.438,540.632,538.863,0.0
51725.0,STARLINK-3522,PAYLOAD,2024-03-14 04:33:30,15.08845329,0.0001317,53.2192,346.0125,96.1587,263.9555,0.00011088,1.477e-05,0.0,0 STARLINK-3522,1 51725U 22016M   24074.18994137  .00001477  00000-0  11088-3 0  9990,2 51725  53.2192 346.0125 0001317  96.1587 263.9555 15.08845329115033,6917.864,95.437,540.64,538.818,0.0
51725.0,STARLINK-3522,PAYLOAD,2024-03-14 22:02:45,15.08836667,0.000127,53.2186,342.7396,80.6866,279.427,0.00010664,1.41e-05,0.0,0 STARLINK-3522,1 51725U 22016M   24074.91858757  .00001410  00000-0  10664-3 0  9994,2 51725  53.2186 342.7396 0001270  80.6866 279.4270 15.08836667114002,6917.891,95.438,540.634,538.877,0.0
51725.0,STARLINK-3522,PAYLOAD,2024-03-15 02:48:54,15.08841794,0.0001308,53.2192,341.8464,93.9513,266.1628,0.00014594,2.036e-05,0.0,0 STARLINK-3522,1 51725U 22016M   24075.11730313  .00002036  00000-0  14594-3 0  9995,2 51725  53.2192 341.8464 0001308  93.9513 266.1628 15.08841794115179,6917.875,95.437,540.645,538.835,0.0
51725.0,STARLINK-3522,PAYLOAD,2024-03-15 21:53:32,15.0884247,0.0001315,53.2192,338.2786,92.2972,267.8171,5.7089e-05,6.21e-06,0.0,0 STARLINK-3522,1 51725U 22016M   24075.91218582  .00000621  00000-0  57089-4 0  9997,2 51725  53.2192 338.2786 0001315  92.2972 267.8171 15.08842470114155,6917.873,95.437,540.648,538.828,0.0
51725.0,STARLINK-3522,PAYLOAD,2024-03-16 01:04:18,15.08846502,0.0001297,53.2189,337.6885,93.6215,266.4925,8.1995e-05,1.018e-05,0.0,0 STARLINK-3522,1 51725U 22016M   24076.04466208  .00001018  00000-0  81995-4 0  9996,2 51725  53.2189 337.6885 0001297  93.6215 266.4925 15.08846502114172,6917.861,95.437,540.623,538.828,0.0
51725.0,STARLINK-3522,PAYLOAD,2024-03-16 21:44:20,15.08839676,0.0001646,53.2192,333.8236,65.8014,294.315,3.736e-05,3.07e-06,0.0,0 STARLINK-3522,1 51725U 22016M   24076.90579080  .00000307  00000-0  37360-4 0  9991,2 51725  53.2192 333.8236 0001646  65.8014 294.3150 15.08839676114309,6917.881,95.438,540.885,538.608,0.0
51725.0,STARLINK-3522,PAYLOAD,2024-03-17 02:30:29,15.08841988,0.0001757,53.2198,332.926,64.6182,295.4992,4.5499e-05,4.36e-06,0.0,0 STARLINK-3522,1 51725U 22016M   24077.10450873  .00000436  00000-0  45499-4 0  9997,2 51725  53.2198 332.9260 0001757  64.6182 295.4992 15.08841988115472,6917.874,95.437,540.955,538.524,0.0
51725.0,STARLINK-3522,PAYLOAD,2024-03-17 21:35:06,15.0884281,0.0001392,53.2187,329.3581,87.3962,272.7189,8.53e-05,1.07e-05,0.0,0 STARLINK-3522,1 51725U 22016M   24077.89938446  .00001070  00000-0  85300-4 0  9990,2 51725  53.2187 329.3581 0001392  87.3962 272.7189 15.08842810114457,6917.872,95.437,540.7,538.774,0.0
51725.0,STARLINK-3522,PAYLOAD,2024-03-17 23:10:29,15.08849322,0.0001439,53.2186,329.0608,82.3241,277.7914,2.3475e-05,8.6e-07,0.0,0 STARLINK-3522,1 51725U 22016M   24077.96562246  .00000086  00000-0  23475-4 0  9990,2 51725  53.2186 329.0608 0001439  82.3241 277.7914 15.08849322114467,6917.852,95.437,540.712,538.721,0.0
51725.0,STARLINK-3522,PAYLOAD,2024-03-18 21:25:54,15.08839688,0.0001638,53.2195,324.9028,99.5489,260.5688,4.0169e-05,3.51e-06,0.0,0 STARLINK-3522,1 51725U 22016M   24078.89298860  .00000351  00000-0  40169-4 0  9995,2 51725  53.2195 324.9028 0001638  99.5489 260.5688 15.08839688115746,6917.881,95.438,540.879,538.613,0.0
51725.0,STARLINK-3522,PAYLOAD,2024-03-19 02:12:03,15.08842773,0.00014,53.2178,324.0079,97.7119,262.4032,5.6424e-05,6.1e-06,0.0,0 STARLINK-3522,1 51725U 22016M   24079.09170533  .00000610  00000-0  56424-4 0  9993,2 51725  53.2178 324.0079 0001400  97.7119 262.4032 15.08842773114631,6917.872,95.437,540.705,538.768,0.0
51725.0,STARLINK-3522,PAYLOAD,2024-03-19 21:16:39,15.08857121,0.0001565,53.2173,320.4387,96.5005,263.6165,0.00011825,1.595e-05,0.0,0 STARLINK-3522,1 51725U 22016M   24079.88657190  .00001595  00000-0  11825-3 0  9997,2 51725  53.2173 320.4387 0001565  96.5005 263.6165 15.08857121115893,6917.828,95.436,540.776,538.61,0.0
51725.0,STARLINK-3522,PAYLOAD,2024-03-19 22:52:02,15.08868532,0.0001579,53.2187,320.1471,103.6575,256.4593,0.00027804,4.143e-05,0.0,0 STARLINK-3522,1 51725U 22016M   24079.95280107  .00004143  00000-0  27804-3 0  9991,2 51725  53.2187 320.1471 0001579 103.6575 256.4593 15.08868532115901,6917.793,95.436,540.75,538.566,0.0
51725.0,STARLINK-3522,PAYLOAD,2024-03-20 21:07:28,15.08836073,0.0001263,53.2173,315.9796,97.6152,262.4984,-6.4422e-06,-3.9e-06,0.0,0 STARLINK-3522,1 51725U 22016M   24080.88018973 -.00000390  00000-0 -64422-5 0  9996,2 51725  53.2173 315.9796 0001263  97.6152 262.4984 15.08836073116043,6917.892,95.438,540.631,538.884,0.0
51725.0,STARLINK-3522,PAYLOAD,2024-03-20 22:42:51,15.08832853,0.0001302,53.2172,315.6829,81.8186,278.2954,-2.079e-05,-6.19e-06,0.0,0 STARLINK-3522,1 51725U 22016M   24080.94643311 -.00000619  00000-0 -20790-4 0  9996,2 51725  53.2172 315.6829 0001302  81.8186 278.2954 15.08832853114910,6917.902,95.438,540.668,538.867,0.0
51725.0,STARLINK-3522,PAYLOAD,2024-03-21 08:15:10,15.08834064,0.0001305,53.217,313.8987,76.1215,283.9922,-4.4218e-05,-9.91e-06,0.0,0 STARLINK-3522,1 51725U 22016M   24081.34387429 -.00000991  00000-0 -44218-4 0  9990,2 51725  53.2170 313.8987 0001305  76.1215 283.9922 15.08834064114976,6917.899,95.438,540.666,538.861,0.0
51725.0,STARLINK-3522,PAYLOAD,2024-03-21 20:58:15,15.08853385,0.0001331,53.2159,311.5174,65.375,294.7381,-0.00011777,-2.162e-05,0.0,0 STARLINK-3522,1 51725U 22016M   24081.87378486 -.00002162  00000-0 -11777-3 0  9996,2 51725  53.2159 311.5174 0001331  65.3750 294.7381 15.08853385116191,6917.839,95.437,540.625,538.784,0.0
51725.0,STARLINK-3522,PAYLOAD,2024-03-22 14:27:29,15.0883751,0.0001569,53.2166,308.2503,72.8185,287.2979,0.00025059,3.702e-05,0.0,0 STARLINK-3522,1 51725U 22016M   24082.60242985  .00003702  00000-0  25059-3 0  9999,2 51725  53.2166 308.2503 0001569  72.8185 287.2979 15.08837510115164,6917.888,95.438,540.838,538.668,0.0
51725.0,STARLINK-3522,PAYLOAD,2024-03-22 20:49:02,15.0884127,0.0001573,53.2169,307.0616,75.8612,284.2555,0.00026816,3.982e-05,0.0,0 STARLINK-3522,1 51725U 22016M   24082.86738822  .00003982  00000-0  26816-3 0  9999,2 51725  53.2169 307.0616 0001573  75.8612 284.2555 15.08841270116348,6917.877,95.437,540.83,538.653,0.0
51725.0,STARLINK-3522,PAYLOAD,2024-03-22 22:24:25,15.08843116,0.0001557,53.2165,306.7639,72.3016,287.8146,0.00028471,4.246e-05,0.0,0 STARLINK-3522,1 51725U 22016M   24082.93362744  .00004246  00000-0  28471-3 0  9996,2 51725  53.2165 306.7639 0001557  72.3016 287.8146 15.08843116115218,6917.871,95.437,540.813,538.659,0.0
51725.0,STARLINK-3522,PAYLOAD,2024-03-23 20:39:49,15.0883645,0.0001448,53.2164,302.6017,95.0875,265.0282,-7.0293e-06,-4e-06,0.0,0 STARLINK-3522,1 51725U 22016M   24083.86099322 -.00000400  00000-0 -70293-5 0  9999,2 51725  53.2164 302.6017 0001448  95.0875 265.0282 15.08836450116499,6917.891,95.438,540.758,538.755,0.0
